APRIZESAT 2             
1 28366U 04025A   15289.75546224  .00000117  00000-0  50897-4 0  9998
2 28366  98.3292 211.8781 0109124  73.7431 287.5727 14.36485696592095
SAUDICOMSAT 1           
1 28369U 04025D   15289.87186425  .00000222  00000-0  65209-4 0  9997
2 28369  98.1082 248.4646 0034974 102.7003 257.8106 14.52146698598357
SAUDICOMSAT 2           
1 28370U 04025E   15289.14360715  .00000146  00000-0  51394-4 0  9990
2 28370  98.2229 237.5171 0057297 210.2376 149.5506 14.47120550596224
APRIZESAT 1             
1 28372U 04025G   15289.88154500  .00000106  00000-0  38639-4 0  9999
2 28372  98.1719 242.5621 0046932 156.0841 266.5558 14.49343186597315
NANOSAT-1               
1 28493U 04049B   15289.74087593  .00000353  00000-0  63131-4 0  9990
2 28493  98.2872 339.0008 0005537 130.9567 342.5197 14.72992151581206
SAUDICOMSAT 7           
1 31119U 07012C   15289.74725260  .00000226  00000-0  53822-4 0  9997
2 31119  97.8668 268.4428 0060327 180.9144 179.1957 14.61323830452944
SAUDICOMSAT 6           
1 31121U 07012E   15289.50307086  .00000203  00000-0  52204-4 0  9994
2 31121  97.9279 258.7147 0075821 233.7644 125.6532 14.58140005451944
SAUDICOMSAT 5           
1 31124U 07012H   15289.76158809  .00000258  00000-0  58164-4 0  9993
2 31124  97.8343 274.3031 0052522 155.3026 205.0708 14.62990091453437
SAUDICOMSAT 3           
1 31125U 07012J   15288.95771031  .00000284  00000-0  61112-4 0  9998
2 31125  97.8042 279.6024 0044663 133.4827 227.0105 14.64676048453741
SAUDICOMSAT 4           
1 31127U 07012L   15289.46696677  .00000209  00000-0  51798-4 0  9995
2 31127  97.8959 263.6622 0067720 206.3847 153.3900 14.59841231452440
APRIZESAT 4             
1 35684U 09041D   15289.37831536  .00000405  00000-0  61818-4 0  9998
2 35684  98.0751 216.4134 0046201 262.1358 212.2580 14.78684326335009
APRIZESAT 3             
1 35686U 09041F   15289.12158447  .00000430  00000-0  53129-4 0  9990
2 35686  98.2131 254.2049 0073515 195.3689 164.5294 14.86553651336537
AISSAT 1                
1 36797U 10035C   15289.83115699  .00000857  00000-0  10651-3 0  9994
2 36797  98.0147  27.9522 0011476 178.1843 181.9415 14.85167244284837
